CCSDS_OMM_VERS = 2.0
CREATION_DATE  = 
ORIGINATOR     = 

OBJECT_NAME    = ATLAS CENTAUR 2
OBJECT_ID      = 1963-047A
CENTER_NAME    = EARTH
REF_FRAME      = TEME
TIME_SYSTEM    = UTC
MEAN_ELEMENT_THEORY = SGP/SGP4

EPOCH          = 2026-02-08T06:39:26.357760
MEAN_MOTION    = 14.11985391
ECCENTRICITY   = .0548112
INCLINATION    = 30.3563
RA_OF_ASC_NODE = 0.0016
ARG_OF_PERICENTER = 181.1187
MEAN_ANOMALY   = 178.8193

EPHEMERIS_TYPE = 0
CLASSIFICATION_TYPE = U
NORAD_CAT_ID   = 694
ELEMENT_SET_NO = 999
REV_AT_EPOCH   = 12746
BSTAR          = .17637E-3
MEAN_MOTION_DOT = .1553E-4
MEAN_MOTION_DDOT = 0

CCSDS_OMM_VERS = 2.0
CREATION_DATE  = 
ORIGINATOR     = 

OBJECT_NAME    = THOR AGENA D R/B
OBJECT_ID      = 1964-002A
CENTER_NAME    = EARTH
REF_FRAME      = TEME
TIME_SYSTEM    = UTC
MEAN_ELEMENT_THEORY = SGP/SGP4

EPOCH          = 2026-02-08T15:15:37.338912
MEAN_MOTION    = 14.34001891
ECCENTRICITY   = .0032631
INCLINATION    = 99.1230
RA_OF_ASC_NODE = 51.3911
ARG_OF_PERICENTER = 344.8366
MEAN_ANOMALY   = 15.1836

EPHEMERIS_TYPE = 0
CLASSIFICATION_TYPE = U
NORAD_CAT_ID   = 733
ELEMENT_SET_NO = 999
REV_AT_EPOCH   = 23413
BSTAR          = .12151E-3
MEAN_MOTION_DOT = .292E-5
MEAN_MOTION_DDOT = 0

CCSDS_OMM_VERS = 2.0
CREATION_DATE  = 
ORIGINATOR     = 

OBJECT_NAME    = SL-3 R/B
OBJECT_ID      = 1964-053B
CENTER_NAME    = EARTH
REF_FRAME      = TEME
TIME_SYSTEM    = UTC
MEAN_ELEMENT_THEORY = SGP/SGP4

EPOCH          = 2026-02-08T11:17:06.274464
MEAN_MOTION    = 14.61337006
ECCENTRICITY   = .00782997
INCLINATION    = 65.0763
RA_OF_ASC_NODE = 56.8993
ARG_OF_PERICENTER = 301.4941
MEAN_ANOMALY   = 57.8524

EPHEMERIS_TYPE = 0
CLASSIFICATION_TYPE = U
NORAD_CAT_ID   = 877
ELEMENT_SET_NO = 999
REV_AT_EPOCH   = 26252
BSTAR          = .10893671E-3
MEAN_MOTION_DOT = .437E-5
MEAN_MOTION_DDOT = 0

CCSDS_OMM_VERS = 2.0
CREATION_DATE  = 
ORIGINATOR     = 

OBJECT_NAME    = SL-8 R/B
OBJECT_ID      = 1967-045B
CENTER_NAME    = EARTH
REF_FRAME      = TEME
TIME_SYSTEM    = UTC
MEAN_ELEMENT_THEORY = SGP/SGP4

EPOCH          = 2026-02-08T10:34:31.122336
MEAN_MOTION    = 14.45593526
ECCENTRICITY   = .00630651
INCLINATION    = 74.0101
RA_OF_ASC_NODE = 42.7109
ARG_OF_PERICENTER = 56.3672
MEAN_ANOMALY   = 304.3480

EPHEMERIS_TYPE = 0
CLASSIFICATION_TYPE = U
NORAD_CAT_ID   = 2802
ELEMENT_SET_NO = 999
REV_AT_EPOCH   = 8479
BSTAR          = .11033153E-3
MEAN_MOTION_DOT = .371E-5
MEAN_MOTION_DDOT = 0

CCSDS_OMM_VERS = 2.0
CREATION_DATE  = 
ORIGINATOR     = 

OBJECT_NAME    = OAO 2
OBJECT_ID      = 1968-110A
CENTER_NAME    = EARTH
REF_FRAME      = TEME
TIME_SYSTEM    = UTC
MEAN_ELEMENT_THEORY = SGP/SGP4

EPOCH          = 2026-02-08T11:06:57.218400
MEAN_MOTION    = 14.47289845
ECCENTRICITY   = .00058796
INCLINATION    = 34.9938
RA_OF_ASC_NODE = 68.3975
ARG_OF_PERICENTER = 319.0096
MEAN_ANOMALY   = 41.0152

EPHEMERIS_TYPE = 0
CLASSIFICATION_TYPE = U
NORAD_CAT_ID   = 3597
ELEMENT_SET_NO = 999
REV_AT_EPOCH   = 1486
BSTAR          = .97581531E-4
MEAN_MOTION_DOT = .343E-5
MEAN_MOTION_DDOT = 0

CCSDS_OMM_VERS = 2.0
CREATION_DATE  = 
ORIGINATOR     = 

OBJECT_NAME    = SERT 2
OBJECT_ID      = 1970-009A
CENTER_NAME    = EARTH
REF_FRAME      = TEME
TIME_SYSTEM    = UTC
MEAN_ELEMENT_THEORY = SGP/SGP4

EPOCH          = 2026-02-08T19:57:30.987360
MEAN_MOTION    = 13.58727024
ECCENTRICITY   = .0004054
INCLINATION    = 99.2722
RA_OF_ASC_NODE = 344.5103
ARG_OF_PERICENTER = 234.2402
MEAN_ANOMALY   = 180.4074

EPHEMERIS_TYPE = 0
CLASSIFICATION_TYPE = U
NORAD_CAT_ID   = 4327
ELEMENT_SET_NO = 999
REV_AT_EPOCH   = 77597
BSTAR          = .12605E-3
MEAN_MOTION_DOT = .51E-6
MEAN_MOTION_DDOT = 0

CCSDS_OMM_VERS = 2.0
CREATION_DATE  = 
ORIGINATOR     = 

OBJECT_NAME    = SL-3 R/B
OBJECT_ID      = 1971-028B
CENTER_NAME    = EARTH
REF_FRAME      = TEME
TIME_SYSTEM    = UTC
MEAN_ELEMENT_THEORY = SGP/SGP4

EPOCH          = 2026-02-08T18:57:00.832608
MEAN_MOTION    = 15.58832942
ECCENTRICITY   = .0017446
INCLINATION    = 81.2348
RA_OF_ASC_NODE = 87.6655
ARG_OF_PERICENTER = 36.3585
MEAN_ANOMALY   = 323.8848

EPHEMERIS_TYPE = 0
CLASSIFICATION_TYPE = U
NORAD_CAT_ID   = 5118
ELEMENT_SET_NO = 999
REV_AT_EPOCH   = 98416
BSTAR          = .41083E-3
MEAN_MOTION_DOT = .32079E-3
MEAN_MOTION_DDOT = 0

CCSDS_OMM_VERS = 2.0
CREATION_DATE  = 
ORIGINATOR     = 

OBJECT_NAME    = SL-8 R/B
OBJECT_ID      = 1971-119B
CENTER_NAME    = EARTH
REF_FRAME      = TEME
TIME_SYSTEM    = UTC
MEAN_ELEMENT_THEORY = SGP/SGP4

EPOCH          = 2026-02-08T20:13:18.593184
MEAN_MOTION    = 14.36966287
ECCENTRICITY   = .0553762
INCLINATION    = 73.8855
RA_OF_ASC_NODE = 229.6053
ARG_OF_PERICENTER = 202.1559
MEAN_ANOMALY   = 155.4811

EPHEMERIS_TYPE = 0
CLASSIFICATION_TYPE = U
NORAD_CAT_ID   = 5730
ELEMENT_SET_NO = 999
REV_AT_EPOCH   = 65134
BSTAR          = .60373E-3
MEAN_MOTION_DOT = .11627E-3
MEAN_MOTION_DDOT = 0

CCSDS_OMM_VERS = 2.0
CREATION_DATE  = 
ORIGINATOR     = 

OBJECT_NAME    = OAO 3 (COPERNICUS)
OBJECT_ID      = 1972-065A
CENTER_NAME    = EARTH
REF_FRAME      = TEME
TIME_SYSTEM    = UTC
MEAN_ELEMENT_THEORY = SGP/SGP4

EPOCH          = 2026-02-08T11:26:44.092608
MEAN_MOTION    = 14.59971702
ECCENTRICITY   = .00072581
INCLINATION    = 35.0055
RA_OF_ASC_NODE = 103.7469
ARG_OF_PERICENTER = 281.4231
MEAN_ANOMALY   = 195.7621

EPHEMERIS_TYPE = 0
CLASSIFICATION_TYPE = U
NORAD_CAT_ID   = 6153
ELEMENT_SET_NO = 999
REV_AT_EPOCH   = 84192
BSTAR          = .10386775E-3
MEAN_MOTION_DOT = .485E-5
MEAN_MOTION_DDOT = 0

